NORAD_CAT_ID,OBJECT_NAME,OBJECT_TYPE,EPOCH,MEAN_MOTION,ECCENTRICITY,INCLINATION,RA_OF_ASC_NODE,ARG_OF_PERICENTER,MEAN_ANOMALY,BSTAR,MEAN_MOTION_DOT,MEAN_MOTION_DDOT,TLE_LINE0,TLE_LINE1,TLE_LINE2,SEMIMAJOR_AXIS,PERIOD,APOGEE,PERIGEE,DECAYED
52379.0,STARLINK-3800,PAYLOAD,2023-05-13 09:12:09,15.08840206,0.000115,53.2162,138.8301,92.5173,267.5951,0.00011488,1.541e-05,0.0,0 STARLINK-3800,1 52379U 22045BA  23133.38344771  .00001541  00000-0  11488-3 0  9994,2 52379  53.2162 138.8301 0001150  92.5173 267.5951 15.08840206 60235,6917.88,95.438,540.54,538.949,0.0
52379.0,STARLINK-3800,PAYLOAD,2023-05-13 17:09:05,15.08836561,0.0001153,53.2161,137.343,89.1416,270.9708,7.9108e-05,9.71e-06,0.0,0 STARLINK-3800,1 52379U 22045BA  23133.71465130  .00000971  00000-0  79108-4 0  9994,2 52379  53.2161 137.3430 0001153  89.1416 270.9708 15.08836561 60288,6917.891,95.438,540.554,538.958,0.0
52379.0,STARLINK-3800,PAYLOAD,2023-05-14 07:27:34,15.08833047,0.0001164,53.2162,134.6671,88.9579,271.1547,4.3605e-05,4.06e-06,0.0,0 STARLINK-3800,1 52379U 22045BA  23134.31081695  .00000406  00000-0  43605-4 0  9997,2 52379  53.2162 134.6671 0001164  88.9579 271.1547 15.08833047 60375,6917.902,95.438,540.572,538.961,0.0
52379.0,STARLINK-3800,PAYLOAD,2023-05-14 12:13:43,15.08835522,0.0001167,53.2162,133.775,89.3089,270.8037,4.529e-05,4.33e-06,0.0,0 STARLINK-3800,1 52379U 22045BA  23134.50953566  .00000433  00000-0  45290-4 0  9995,2 52379  53.2162 133.7750 0001167  89.3089 270.8037 15.08835522 60401,6917.894,95.438,540.566,538.952,0.0
52379.0,STARLINK-3800,PAYLOAD,2023-05-14 16:59:53,15.0883723,0.0001172,53.2162,132.883,88.2529,271.8597,5.3497e-05,5.64e-06,0.0,0 STARLINK-3800,1 52379U 22045BA  23134.70825476  .00000564  00000-0  53497-4 0  9998,2 52379  53.2162 132.8830 0001172  88.2529 271.8597 15.08837230 60436,6917.889,95.438,540.565,538.943,0.0
52379.0,STARLINK-3800,PAYLOAD,2023-05-14 23:21:25,15.08841259,0.0001171,53.2164,131.693,88.6055,271.5071,5.9971e-05,6.67e-06,0.0,0 STARLINK-3800,1 52379U 22045BA  23134.97321195  .00000667  00000-0  59971-4 0  9993,2 52379  53.2164 131.6930 0001171  88.6055 271.5071 15.08841259 60477,6917.877,95.437,540.552,538.931,0.0
52379.0,STARLINK-3800,PAYLOAD,2023-05-15 07:18:20,15.08843825,0.0001125,53.2164,130.2066,88.2748,271.8373,7.0779e-05,8.39e-06,0.0,0 STARLINK-3800,1 52379U 22045BA  23135.30440962  .00000839  00000-0  70779-4 0  9995,2 52379  53.2164 130.2066 0001125  88.2748 271.8373 15.08843825 60521,6917.869,95.437,540.512,538.955,0.0
52379.0,STARLINK-3800,PAYLOAD,2023-05-16 07:09:08,15.08834633,0.000114,53.2168,125.7459,82.8753,277.2368,4.1305e-05,3.7e-06,0.0,0 STARLINK-3800,1 52379U 22045BA  23136.29801875  .00000370  00000-0  41305-4 0  9991,2 52379  53.2168 125.7459 0001140  82.8753 277.2368 15.08834633 60670,6917.897,95.438,540.55,538.973,0.0
52379.0,STARLINK-3800,PAYLOAD,2023-05-16 16:41:27,15.08837549,0.0001142,53.217,123.9618,82.2967,277.8154,4.9783e-05,5.05e-06,0.0,0 STARLINK-3800,1 52379U 22045BA  23136.69545726  .00000505  00000-0  49783-4 0  9993,2 52379  53.2170 123.9618 0001142  82.2967 277.8154 15.08837549 60738,6917.888,95.438,540.543,538.963,0.0
52379.0,STARLINK-3800,PAYLOAD,2023-05-16 23:02:59,15.08841189,0.0001116,53.2169,122.7719,81.5063,278.6056,6.2424e-05,7.06e-06,0.0,0 STARLINK-3800,1 52379U 22045BA  23136.96041441  .00000706  00000-0  62424-4 0  9998,2 52379  53.2169 122.7719 0001116  81.5063 278.6056 15.08841189 60774,6917.877,95.437,540.514,538.97,0.0
52379.0,STARLINK-3800,PAYLOAD,2023-05-17 16:32:14,15.08840801,0.0001121,53.2169,119.5013,79.0517,281.0601,7.7364e-05,9.44e-06,0.0,0 STARLINK-3800,1 52379U 22045BA  23137.68905259  .00000944  00000-0  77364-4 0  9997,2 52379  53.2169 119.5013 0001121  79.0517 281.0601 15.08840801 60883,6917.878,95.438,540.518,538.967,0.0
52379.0,STARLINK-3800,PAYLOAD,2023-05-18 02:04:33,15.08837953,0.000112,53.2171,117.7175,77.8303,282.2815,5.1024e-05,5.24e-06,0.0,0 STARLINK-3800,1 52379U 22045BA  23138.08649544  .00000524  00000-0  51024-4 0  9993,2 52379  53.2171 117.7175 0001120  77.8303 282.2815 15.08837953 60944,6917.887,95.438,540.526,538.977,0.0
52379.0,STARLINK-3800,PAYLOAD,2023-05-18 08:26:05,15.08839639,0.0001131,53.217,116.5273,81.7818,278.3303,6.5723e-05,7.58e-06,0.0,0 STARLINK-3800,1 52379U 22045BA  23138.35145352  .00000758  00000-0  65723-4 0  9991,2 52379  53.2170 116.5273 0001131  81.7818 278.3303 15.08839639 60981,6917.881,95.438,540.529,538.964,0.0
52379.0,STARLINK-3800,PAYLOAD,2023-05-19 03:30:43,15.08837833,0.0001153,53.2169,112.9587,83.5549,276.5574,-2.0527e-05,-6.14e-06,0.0,0 STARLINK-3800,1 52379U 22045BA  23139.14633813 -.00000614  00000-0 -20527-4 0  9999,2 52379  53.2169 112.9587 0001153  83.5549 276.5574 15.08837833 61101,6917.887,95.438,540.55,538.954,0.0
52379.0,STARLINK-3800,PAYLOAD,2023-05-19 08:16:52,15.08838514,0.0001166,53.217,112.0669,83.1418,276.9706,-1.5412e-05,-5.33e-06,0.0,0 STARLINK-3800,1 52379U 22045BA  23139.34505757 -.00000533  00000-0 -15412-4 0  9993,2 52379  53.2170 112.0669 0001166  83.1418 276.9706 15.08838514 61131,6917.885,95.438,540.557,538.943,0.0
52379.0,STARLINK-3800,PAYLOAD,2023-05-20 04:56:53,15.08840343,0.0001106,53.2168,108.2016,81.1905,278.9212,4.8417e-05,4.83e-06,0.0,0 STARLINK-3800,1 52379U 22045BA  23140.20617597  .00000483  00000-0  48417-4 0  9999,2 52379  53.2168 108.2016 0001106  81.1905 278.9212 15.08840343 61265,6917.879,95.438,540.509,538.979,0.0
52379.0,STARLINK-3800,PAYLOAD,2023-05-21 04:47:39,15.08849955,0.0001029,53.2168,103.7416,91.7977,268.3133,0.00014064,1.952e-05,0.0,0 STARLINK-3800,1 52379U 22045BA  23141.19976535  .00001952  00000-0  14064-3 0  9990,2 52379  53.2168 103.7416 0001029  91.7977 268.3133 15.08849955 61419,6917.85,95.437,540.427,539.003,0.0
52379.0,STARLINK-3800,PAYLOAD,2023-05-22 01:27:42,15.08832811,8.82e-05,53.2178,99.8778,107.2161,252.8928,-4.0307e-05,-9.29e-06,0.0,0 STARLINK-3800,1 52379U 22045BA  23142.06090569 -.00000929  00000-0 -40307-4 0  9996,2 52379  53.2178  99.8778 0000882 107.2161 252.8928 15.08832811 61547,6917.902,95.438,540.378,539.157,0.0
52379.0,STARLINK-3800,PAYLOAD,2023-05-22 06:13:51,15.08830186,8.84e-05,53.2171,98.9851,95.3296,264.7796,-5.0946e-05,-1.098e-05,0.0,0 STARLINK-3800,1 52379U 22045BA  23142.25962891 -.00001098  00000-0 -50946-4 0  9991,2 52379  53.2171  98.9851 0000884  95.3296 264.7796 15.08830186 61571,6917.91,95.438,540.387,539.164,0.0
52379.0,STARLINK-3800,PAYLOAD,2023-05-23 06:04:38,15.08848575,0.000112,53.2175,94.5218,92.4163,267.6957,3.7309e-05,3.06e-06,0.0,0 STARLINK-3800,1 52379U 22045BA  23143.25321822  .00000306  00000-0  37309-4 0  9992,2 52379  53.2175  94.5218 0001120  92.4163 267.6957 15.08848575 61728,6917.854,95.437,540.494,538.944,0.0
52379.0,STARLINK-3800,PAYLOAD,2023-05-24 02:44:38,15.08839743,0.0001066,53.2174,90.6564,85.5572,274.5542,0.00022104,3.232e-05,0.0,0 STARLINK-3800,1 52379U 22045BA  23144.11433980  .00003232  00000-0  22104-3 0  9994,2 52379  53.2174  90.6564 0001066  85.5572 274.5542 15.08839743 61852,6917.881,95.438,540.484,539.009,0.0
52379.0,STARLINK-3800,PAYLOAD,2023-05-24 05:55:24,15.08845072,0.0001075,53.2173,90.0606,90.5748,269.5367,0.00027195,4.043e-05,0.0,0 STARLINK-3800,1 52379U 22045BA  23144.24681625  .00004043  00000-0  27195-3 0  9995,2 52379  53.2173  90.0606 0001075  90.5748 269.5367 15.08845072 61876,6917.865,95.437,540.474,538.986,0.0
52379.0,STARLINK-3800,PAYLOAD,2023-05-25 20:04:40,15.08845931,0.0001111,53.2187,82.9248,100.2328,259.879,-3.6661e-05,-8.71e-06,0.0,0 STARLINK-3800,1 52379U 22045BA  23145.83658374 -.00000871  00000-0 -36661-4 0  9992,2 52379  53.2187  82.9248 0001111 100.2328 259.8790 15.08845931 62111,6917.862,95.437,540.496,538.959,0.0
52379.0,STARLINK-3800,PAYLOAD,2023-05-26 02:26:12,15.08850428,0.0001139,53.2182,81.7367,97.147,262.9652,1.6786e-06,-2.61e-06,0.0,0 STARLINK-3800,1 52379U 22045BA  23146.10153895 -.00000261  00000-0  16786-5 0  9990,2 52379  53.2182  81.7367 0001139  97.1470 262.9652 15.08850428 62150,6917.849,95.437,540.501,538.926,0.0
52379.0,STARLINK-3800,PAYLOAD,2023-05-26 05:36:59,15.0885112,0.0001125,53.2184,81.141,99.4516,260.6604,1.2467e-05,-8.9e-07,0.0,0 STARLINK-3800,1 52379U 22045BA  23146.23401732 -.00000089  00000-0  12467-4 0  9999,2 52379  53.2184  81.1410 0001125  99.4516 260.6604 15.08851120 62170,6917.846,95.437,540.49,538.933,0.0
52379.0,STARLINK-3800,PAYLOAD,2023-05-27 00:41:37,15.08831084,0.0001304,53.2181,77.5714,108.8626,251.2507,2.5124e-05,1.12e-06,0.0,0 STARLINK-3800,1 52379U 22045BA  23147.02891107  .00000112  00000-0  25124-4 0  9996,2 52379  53.2181  77.5714 0001304 108.8626 251.2507 15.08831084 62297,6917.908,95.438,540.675,538.871,0.0
52379.0,STARLINK-3800,PAYLOAD,2023-05-27 19:46:15,15.08839832,0.0001211,53.2179,74.003,90.9086,269.2045,2.4945e-05,1.09e-06,0.0,0 STARLINK-3800,1 52379U 22045BA  23147.82378886  .00000109  00000-0  24945-4 0  9994,2 52379  53.2179  74.0030 0001211  90.9086 269.2045 15.08839832 62414,6917.881,95.438,540.584,538.908,0.0
52379.0,STARLINK-3800,PAYLOAD,2023-05-28 03:43:10,15.08845996,0.0001151,53.2184,72.5198,91.9743,268.1381,8.9266e-05,1.133e-05,0.0,0 STARLINK-3800,1 52379U 22045BA  23148.15498359  .00001133  00000-0  89266-4 0  9994,2 52379  53.2184  72.5198 0001151  91.9743 268.1381 15.08845996 62466,6917.862,95.437,540.523,538.931,0.0
52379.0,STARLINK-3800,PAYLOAD,2023-05-29 03:33:57,15.08843229,0.0001195,53.2187,68.0607,100.615,259.4977,0.00014668,2.048e-05,0.0,0 STARLINK-3800,1 52379U 22045BA  23149.14858450  .00002048  00000-0  14668-3 0  9995,2 52379  53.2187  68.0607 0001195 100.6150 259.4977 15.08843229 62610,6917.871,95.437,540.562,538.909,0.0
52379.0,STARLINK-3800,PAYLOAD,2023-05-30 03:24:45,15.08835548,0.000113,53.2189,63.6011,83.1017,277.0104,-2.0098e-05,-6.08e-06,0.0,0 STARLINK-3800,1 52379U 22045BA  23150.14219714 -.00000608  00000-0 -20098-4 0  9998,2 52379  53.2189  63.6011 0001130  83.1017 277.0104 15.08835548 62767,6917.894,95.438,540.541,538.977,0.0
